satname,norad_id,inclination_deg,eccentricity,mean_motion_rev_per_day,perigee_km,apogee_km,l1,l2
STARLINK-1008,44714,53.1585,0.0001141,15.3104047,471.9250442912771,473.48840682944956,1 44714U 19074B   26062.70076734  .00000394  00000+0  24886-4 0  9998,2 44714  53.1585 206.6104 0001141  87.9097 272.2035 15.31040470347959
STARLINK-1012,44718,53.1619,9.91e-05,15.30203619,474.525097639711,475.8834298781876,1 44718U 19074F   26063.78824529  .00002549  00000+0  98148-4 0  9990,2 44718  53.1619 201.5726 0000991  84.2168 275.8946 15.30203619348110
STARLINK-1017,44723,53.0553,0.0001258,15.23592263,494.1512089605076,495.88049421796677,1 44723U 19074L   26063.75574869  .00056868  00000+0  23416-2 0  9999,2 44723  53.0553 194.2151 0001258 115.4947 244.6180 15.23592263348214
STARLINK-1019,44724,53.0438,0.00025,15.79962839,328.8686552735835,332.2229966865734,1 44724U 19074M   26063.91668981  .00128465  00000+0  67204-3 0  9994,2 44724  53.0438 160.6879 0002500 184.1077  73.9580 15.79962839  6049
STARLINK-1020,44725,53.16,0.0001421,15.3015476,474.3762707086262,476.3240317570062,1 44725U 19074N   26063.00001156  .00042094  00000+0  14273-2 0  9990,2 44725  53.1600 230.2760 0001421  73.7495   0.6730 15.30154760  5847
STARLINK-1031,44736,53.0398,0.0004016,15.88481312,303.8555495237606,309.224682183215,1 44736U 19074Z   26063.91668981  .00210523  00000+0  72541-3 0  9994,2 44736  53.0398 144.3407 0004016 340.9265 344.9568 15.88481312  5990
STARLINK-1036,44741,53.0506,0.0002807,15.54737015,401.01376014985544,404.82064397889553,1 44741U 19074AE  26063.91668981  .00134611  00000+0  19646-2 0  9999,2 44741  53.0506 211.6387 0002807 237.4977  92.6354 15.54737015  5759
STARLINK-1039,44744,53.0477,0.0004698,15.21054688,499.4254491352267,505.89064416105793,1 44744U 19074AH  26063.49137361  .00049647  00000+0  22063-2 0  9999,2 44744  53.0477 238.9809 0004698 156.4076 203.7135 15.21054688347562
STARLINK-1042,44747,53.0435,0.0001927,15.495148,416.8348033400889,419.4540902096751,1 44747U 19074AL  26063.55843900  .00032097  00000+0  57854-3 0  9990,2 44747  53.0435 119.4077 0001927 110.2352 249.8863 15.49514800349272
STARLINK-1043,44748,53.053,0.0002306,15.53254591,405.6663625822848,408.7957743354582,1 44748U 19074AM  26063.44669090  .00046336  00000+0  72660-3 0  9998,2 44748  53.0530 219.7861 0002306  92.3304 267.7969 15.53254591347832
STARLINK-1046,44751,53.0534,0.0006313,15.43124169,432.5930829955005,441.1977429201006,1 44751U 19074AQ  26063.75367049  .00042149  00000+0  94123-3 0  9991,2 44751  53.0534 234.2997 0006313 159.8319 200.2936 15.43124169347651
STARLINK-1047,44752,53.071,0.0002714,15.32448854,466.65042988659025,470.36678912342904,1 44752U 19074AR  26063.47472123  .00015645  00000+0  50298-3 0  9997,2 44752  53.0710 170.3669 0002714 183.1946 176.9038 15.32448854348540
STARLINK-1048,44753,53.0526,0.000121,15.52403142,408.89056635142424,410.5332257842738,1 44753U 19074AS  26063.91668981  .00118181  00000+0  18821-2 0  9990,2 44753  53.0526 191.8487 0001210 169.2652 352.0817 15.52403142  5849
STARLINK-1053,44758,53.0297,0.0007255,15.89271195,299.4769071185201,309.173159528872,1 44758U 19074AX  26063.91668981  .00300917  44052-4  10270-2 0  9995,2 44758  53.0297 107.7771 0007255  36.6454  43.2121 15.89271195  5784
STARLINK-1063,44768,53.1569,0.0005123,15.29545423,473.6582414473869,480.6821892202188,1 44768U 19074BH  26063.59240205 -.00524352  00000+0 -19341-1 0  9995,2 44768  53.1569 243.0685 0005123 117.5126 242.6396 15.29545423347536
STARLINK-1067,44771,53.0507,0.0002392,15.56330708,396.66626123294645,399.908102561566,1 44771U 19074BL  26063.91668981  .00173785  00000+0  23782-2 0  9993,2 44771  53.0507 227.3186 0002392 315.1722 249.6392 15.56330708  5908
STARLINK-1068,44772,53.048,0.0002468,15.62334143,379.24849075455677,382.58475962395096,1 44772U 19074BM  26063.91668981  .00163315  00000+0  17826-2 0  9994,2 44772  53.0480 203.2451 0002468 244.2933 260.1884 15.62334143  5994
STARLINK-1112,44925,53.0327,0.0005051,16.07965152,249.0822006499493,255.78040074731507,1 44925U 20001M   26063.94585365  .00821600  37145-3  97253-3 0  9998,2 44925  53.0327 265.6505 0005051 278.8220  81.2241 16.07965152340563
STARLINK-1114,44927,53.0511,0.0008569,15.49282521,412.9994107273751,424.64804202023606,1 44927U 20001P   26063.84243897  .00119012  00000+0  21147-2 0  9991,2 44927  53.0511 352.6163 0008569  98.9598 261.2380 15.49282521339348
STARLINK-1123,44930,53.1489,0.0001266,15.277121,481.7849935338436,483.52214570607066,1 44930U 20001S   26063.91668981  .01756726  00000+0  58513-1 0  9994,2 44930  53.1489   7.2132 0001266  70.1083 227.7128 15.27712100  5528
STARLINK-1094,44941,53.1635,0.0001221,15.30200533,474.37668388449856,476.0502720712211,1 44941U 20001AD  26063.78486553  .00002443  00000+0  94592-4 0  9993,2 44941  53.1635 342.3473 0001221  70.3859 289.7273 15.30200533339488
STARLINK-1122,44949,53.1616,0.0001237,15.30230904,474.27504896183655,475.97054543566355,1 44949U 20001AM  26063.15807390  .00018591  00000+0  63764-3 0  9995,2 44949  53.1616 345.3039 0001237  97.1301 262.9840 15.30230904339389
STARLINK-1080,44961,53.0526,0.0008283,15.46135516,422.40606586443937,433.68118468827197,1 44961U 20001AZ  26063.12377874  .00111735  00000+0  22175-2 0  9999,2 44961  53.0526 314.7700 0008283 100.5092 259.6848 15.46135516339810
STARLINK-1090,44968,53.0763,0.0001115,15.12054304,529.1657061100177,530.70620637926,1 44968U 20001BG  26063.91668981  .01318739  00000+0  69837-1 0  9994,2 44968  53.0763 327.9820 0001115  69.9593 324.5460 15.12054304  5854
STARLINK-1132,45044,53.1556,0.0004862,15.43062318,433.76396701086014,440.3910816143025,1 45044U 20006A   26063.60631490  .00041693  00000+0  93345-3 0  9990,2 45044  53.1556 278.0452 0004862 170.4739 189.6360 15.43062318336146
STARLINK-1131,45047,53.1599,0.0001423,15.30197661,474.24682026733353,476.19728625389143,1 45047U 20006D   26063.04890911  .00001568  00000+0  65068-4 0  9995,2 45047  53.1599 307.1832 0001423  79.1817 280.9344 15.30197661335685
STARLINK-1134,45048,53.0323,0.0010227,15.42806693,430.8596145824504,444.80099410675757,1 45048U 20006E   26062.79841750  .00044473  00000+0  10018-2 0  9999,2 45048  53.0323 266.3110 0010227 154.2244 205.9272 15.42806693336230
STARLINK-1156,45054,53.1606,0.0001387,15.30197972,474.2705638965699,476.17168544035303,1 45054U 20006L   26063.07523993  .00001316  00000+0  56572-4 0  9990,2 45054  53.1606 307.0716 0001387  62.9108 297.2034 15.30197972335686
STARLINK-1159,45057,53.0456,0.0004035,15.80185665,327.2084398326151,332.62183790868403,1 45057U 20006P   26063.57351791  .00160237  00000+0  82562-3 0  9998,2 45057  53.0456 260.4838 0004035 130.1333 230.0042 15.80185665336382
STARLINK-1166,45060,53.0526,0.0005726,15.44360338,429.3580361188524,437.15844594888404,1 45060U 20006S   26063.78965838  .00077039  00000+0  16355-2 0  9991,2 45060  53.0526 296.0189 0005726 125.6191 234.5348 15.44360338335904
STARLINK-1169,45061,53.1597,0.0001374,15.30197807,474.2799658558315,476.1632688038735,1 45061U 20006T   26063.69573773  .00002465  00000+0  95316-4 0  9992,2 45061  53.1597 304.1928 0001374  94.7406 265.3752 15.30197807335787
STARLINK-1171,45062,53.0452,0.0001768,15.56025331,397.97552692878253,400.37198401191654,1 45062U 20006U   26062.81013846  .00068860  00000+0  96988-3 0  9992,2 45062  53.0452 278.0265 0001768 347.5292  12.5674 15.56025331336077
STARLINK-1133,45064,53.1587,0.0001309,15.30192598,474.34006386727106,476.13427722512006,1 45064U 20006W   26062.78711855 -.00000445  00000+0 -28861-5 0  9999,2 45064  53.1587 285.2174 0001309 106.7829 253.3315 15.30192598335977
STARLINK-1167,45071,53.1599,0.0001225,15.2935929,476.88658451389074,478.566271053699,1 45071U 20006AD  26063.85742884  .00000652  00000+0  34933-4 0  9996,2 45071  53.1599 280.2695 0001225  86.2299 273.8841 15.29359290336133
STARLINK-1168,45072,53.16,0.000143,15.29361256,476.7401646593553,478.70093991931026,1 45072U 20006AE  26062.82161715  .00000671  00000+0  35570-4 0  9990,2 45072  53.1600 285.1271 0001430 116.4755 243.6392 15.29361256335974
STARLINK-1172,45074,53.1596,0.0001543,15.3020162,474.15276091763917,476.26770387355646,1 45074U 20006AG  26063.61302361  .00002542  00000+0  97912-4 0  9991,2 45074  53.1596 281.3982 0001543 115.0751 245.0410 15.30201620336094
STARLINK-1153,45080,53.1584,0.0001277,15.29355975,476.86083983939716,478.6118298891215,1 45080U 20006AN  26062.99230383  .00006550  00000+0  23910-3 0  9991,2 45080  53.1584 284.1995 0001277  92.1744 267.9403 15.29355975336001
STARLINK-1151,45081,53.0523,8.9e-05,15.6472346,373.4332583328214,374.63514480670165,1 45081U 20006AP  26063.91668981  .00013996  00000+0  14674-3 0  9993,2 45081  53.0523 263.2126 0000890  76.3912 319.0155 15.64723460  5866
STARLINK-1185,45087,53.1563,0.0001417,15.29363464,476.7424795000188,478.6854276602635,1 45087U 20006AV  26062.83502350  .00005932  00000+0  21769-3 0  9990,2 45087  53.1563 269.5998 0001417  74.7317 285.3840 15.29363464336194
STARLINK-1183,45088,53.1594,0.0001111,15.30198336,474.45862986098564,475.9814457947914,1 45088U 20006AW  26063.59293399  .00000606  00000+0  32569-4 0  9999,2 45088  53.1594 266.2566 0001111  92.9260 267.1868 15.30198336336301
STARLINK-1152,45096,53.0398,0.0005143,15.37599748,449.69604969594,456.7227726144547,1 45096U 20006BE  26062.74980228  .00087060  00000+0  23079-2 0  9991,2 45096  53.0398 234.4855 0005143 176.1979 183.9063 15.37599748336671
STARLINK-1184,45098,53.052,0.0006329,15.09911639,532.0935001212001,540.8460093513459,1 45098U 20006BG  26063.56993682  .00005932  00000+0  37933-3 0  9995,2 45098  53.0520 268.5346 0006329 120.0247 240.1372 15.09911639336266
STARLINK-1193,45100,53.0524,0.0001238,15.54436503,402.95153770962315,404.630743117189,1 45100U 20006BJ  26063.91668981  .00157373  00000+0  23145-2 0  9995,2 45100  53.0524 253.5054 0001238  62.4527  63.1564 15.54436503  5966
